INTELSAT 35E (IS-35E)   
1 42818U 17041A   26167.74935700 -.00000241  00000+0  00000+0 0  9999
2 42818   0.0182 331.6195 0001598 107.3554  61.2978  1.00268682 32812
COSMOS 2520             
1 42907U 17046A   26167.76510329  .00000135  00000+0  00000+0 0  9992
2 42907   0.0460  92.2751 0001703   8.0174 125.1632  1.00265826 32398
TDRS 13                 
1 42915U 17047A   26167.82524409 -.00000104  00000+0  00000+0 0  9990
2 42915   3.4517   2.7361 0014450 106.3621  81.6405  1.00271480 32344
QZS-3 (MICHIBIKI-3)     
1 42917U 17048A   26167.85260466 -.00000351  00000+0  00000+0 0  9990
2 42917   0.0688 169.8241 0001842 272.7581 256.4293  1.00276177 32259
AMAZONAS 5              
1 42934U 17053A   26167.74398365 -.00000285  00000+0  00000+0 0  9999
2 42934   0.0299 328.6552 0002062  58.1833  84.9962  1.00271034 32048
ASIASAT 9               
1 42942U 17057A   26167.78030131  .00000000  00000+0  00000+0 0  9994
2 42942   0.0420  48.7885 0002495  27.1098 232.2103  1.00264039 31851
INTELSAT 37E (IS-37E)   
1 42950U 17059A   26167.75256368 -.00000143  00000+0  00000+0 0  9993
2 42950   0.0164  21.9885 0002368  84.8898  51.0770  1.00271710 32060
BSAT-4A                 
1 42951U 17059B   26167.94457681 -.00000353  00000+0  00000+0 0  9999
2 42951   0.0484  34.5812 0003986  31.9594 288.5441  1.00271496 31791
QZS-4 (MICHIBIKI-4)     
1 42965U 17062A   26167.35401075 -.00000348  00000+0  00000+0 0  9993
2 42965  40.1083 343.4922 0745175 271.7618 273.8478  1.00250450 31798
SES-11 (ECHOSTAR 105)   
1 42967U 17063A   26168.33648339 -.00000093  00000+0  00000+0 0  9998
2 42967   0.0156 341.9829 0002712  89.2476 210.5453  1.00270718 31725
KOREASAT 5A             
1 42984U 17067A   26167.79678063 -.00000361  00000+0  00000+0 0  9995
2 42984   0.0144  31.5430 0000586  63.6245 209.8868  1.00270908 31528
ALCOMSAT 1              
1 43039U 17078A   26167.73345528 -.00000189  00000+0  00000+0 0  9998
2 43039   0.0335 265.8754 0002237 167.6091  70.7503  1.00269338 31292
SBIRS GEO-3 (USA 282)   
1 43162U 18009A   26168.45630053  .00000123  00000+0  00000+0 0  9997
2 43162   2.1843  12.1363 0001843  65.3199 193.1190  1.00271532 30841
AL YAH 3                
1 43174U 18012A   26167.75221701 -.00000159  00000+0  00000+0 0  9992
2 43174   1.5513  83.1113 0003874   0.7305  71.8540  1.00269871 30844
SES-14                  
1 43175U 18012B   26167.74675699 -.00000281  00000+0  00000+0 0  9997
2 43175   0.0216  33.3553 0000809  49.1617  43.8189  1.00269888  7022
GOES 17                 
1 43226U 18022A   26167.95229310 -.00000186  00000+0  00000+0 0  9997
2 43226   0.9372  85.7144 0000423  32.6375  40.1765  1.00269717 30429
HISPASAT 30W-6          
1 43228U 18023A   26167.75022367 -.00000219  00000+0  00000+0 0  9998
2 43228   0.0464  45.0638 0005685  25.5389  74.4852  1.00269755 30409
SUPERBIRD-B3            
1 43271U 18033A   26168.41989110 -.00000097  00000+0  00000+0 0  9993
2 43271   0.0160   0.5565 0000933  79.9638 138.3195  1.00271576 30062
HYLAS 4                 
1 43272U 18033B   26167.96341280 -.00000237  00000+0  00000+0 0  9999
2 43272   0.0157  26.2092 0001177  66.6667 125.6670  1.00267492 30064
IRNSS-1I                
1 43286U 18035A   26166.83981681  .00000062  00000+0  00000+0 0  9991
2 43286  28.7520  74.2167 0017811 181.5598   5.5147  1.00272046 30064
USA 283                 
1 43339U 18036A   26166.49948147  .00000000  00000+0  00000+0 0  9995
2 43339   0.0182   1.8047 0000468 172.3670  43.5385  1.00267801 25278
COSMOS 2526             
1 43432U 18037A   26167.85277800 -.00000347  00000+0  00000+0 0  9997
2 43432   0.0301  74.6789 0000521 134.9835 130.5176  1.00270287 29959
APSTAR-6C               
1 43450U 18041A   26168.66044499 -.00000323  00000+0  00000+0 0  9992
2 43450   0.0264  17.2344 0000923 325.3528 295.0733  1.00268739 29818
BANGABANDHUSAT-1        
1 43463U 18044A   26167.76778736 -.00000365  00000+0  00000+0 0  9993
2 43463   0.0240  77.0295 0001626   4.9700 218.5323  1.00269974 29703
SES-12                  
1 43488U 18049A   26168.64418793 -.00000274  00000+0  00000+0 0  9996
2 43488   0.0185  26.5099 0000729 255.1850 311.0984  1.00268123 29424
FENGYUN 2H              
1 43491U 18050A   26167.77186332 -.00000134  00000+0  00000+0 0  9991
2 43491   3.0297  79.0759 0001982 138.6061  44.6323  1.00269582 29439
BEIDOU-2 IGSO-7         
1 43539U 18057A   26166.92202744 -.00000027  00000+0  00000+0 0  9994
2 43539  55.1938 163.0687 0105067 238.0100 305.1025  1.00251416 29110
TELSTAR 19V             
1 43562U 18059A   26168.48655743 -.00000284  00000+0  00000+0 0  9991
2 43562   0.0186 169.5740 0002446 306.2270 262.0928  1.00269474 29143
TELKOM 4 (MERAH PUTIH)  
1 43587U 18064A   26167.84879131 -.00000347  00000+0  00000+0 0  9992
2 43587   0.0170 313.5376 0001234 165.5776 199.5551  1.00270495 28870
TELSTAR 18V             
1 43611U 18069A   26167.85477134 -.00000297  00000+0  00000+0 0  9997
2 43611   0.0163 299.3195 0001767 134.3157 277.1900  1.00270418 28638
AZERSPACE 2 (IS-38)     
1 43632U 18074A   26167.76510329  .00000134  00000+0  00000+0 0  9999
2 43632   0.0176   5.0049 0001230  81.7615 138.8031  1.00270536 28442
